{"fetched_at":"2026-07-21T07:06:38.133Z","source":"https://celestrak.org/NORAD/elements/gp.php?GROUP=stations&FORMAT=JSON","constellation":"crewed-vehicles","records":[{"OBJECT_NAME":"SOYUZ-MS 28","OBJECT_ID":"2025-275A","EPOCH":"2026-07-20T19:09:47.004480","CLASSIFICATION_TYPE":"U","MEAN_MOTION":15.49066413,"ECCENTRICITY":0.00068357,"INCLINATION":51.6312,"RA_OF_ASC_NODE":133.7599,"ARG_OF_PERICENTER":319.3995,"MEAN_ANOMALY":40.6483,"EPHEMERIS_TYPE":0,"NORAD_CAT_ID":66664,"ELEMENT_SET_NO":999,"REV_AT_EPOCH":57611,"BSTAR":0.00010899996,"MEAN_MOTION_DOT":0.00005574,"MEAN_MOTION_DDOT":0},{"OBJECT_NAME":"CREW DRAGON 12","OBJECT_ID":"2026-031A","EPOCH":"2026-07-20T19:09:47.004480","CLASSIFICATION_TYPE":"U","MEAN_MOTION":15.49066413,"ECCENTRICITY":0.00068357,"INCLINATION":51.6312,"RA_OF_ASC_NODE":133.7599,"ARG_OF_PERICENTER":319.3995,"MEAN_ANOMALY":40.6483,"EPHEMERIS_TYPE":0,"NORAD_CAT_ID":67796,"ELEMENT_SET_NO":999,"REV_AT_EPOCH":57635,"BSTAR":0.00010899996,"MEAN_MOTION_DOT":0.00005574,"MEAN_MOTION_DDOT":0},{"OBJECT_NAME":"SHENZHOU-23 (SZ-23)","OBJECT_ID":"2026-113A","EPOCH":"2026-07-20T18:59:18.074688","CLASSIFICATION_TYPE":"U","MEAN_MOTION":15.58223807,"ECCENTRICITY":0.0001779,"INCLINATION":41.4681,"RA_OF_ASC_NODE":117.912,"ARG_OF_PERICENTER":306.1068,"MEAN_ANOMALY":53.9605,"EPHEMERIS_TYPE":0,"NORAD_CAT_ID":69180,"ELEMENT_SET_NO":999,"REV_AT_EPOCH":29796,"BSTAR":0.00013855012,"MEAN_MOTION_DOT":0.00010456,"MEAN_MOTION_DDOT":0}]}
