SOYUZ-MS 28             
1 66664U 25275A   26201.79846070  .00005574  00000+0  10900-3 0  9994
2 66664  51.6312 133.7599 0006835 319.3995  40.6483 15.49066413576110
CREW DRAGON 12          
1 67796U 26031A   26201.79846070  .00005574  00000+0  10900-3 0  9992
2 67796  51.6312 133.7599 0006835 319.3995  40.6483 15.49066413576353
SHENZHOU-23 (SZ-23)     
1 69180U 26113A   26201.79118142  .00010456  00000+0  13855-3 0  9991
2 69180  41.4681 117.9120 0001779 306.1068  53.9605 15.58223807297961
